{"type": "FeatureCollection", "features": [ {"type": "Feature", "properties": {"norad_id": 65077, "name": "CREW DRAGON 11", "group": "stations", "lat": 41.62061162450673, "lon": -59.99524123684873, "alt_km": 413.07267744828187, "timestamp": "2025-12-08T05:48:07.852265+00:00", "meta": {"OBJECT_NAME": "CREW DRAGON 11", "OBJECT_ID": "2025-166A", "EPOCH": "2025-12-07T21:32:16.385568", "MEAN_MOTION": 15.49404055, "ECCENTRICITY": 0.0003425, "INCLINATION": 51.6302, "RA_OF_ASC_NODE": 166.4547, "ARG_OF_PERICENTER": 217.7386, "MEAN_ANOMALY": 142.3363, "EPHEMERIS_TYPE": 0, "CLASSIFICATION_TYPE": "U", "NORAD_CAT_ID": 65077, "ELEMENT_SET_NO": 999, "REV_AT_EPOCH": 214, "BSTAR": 0.00022339025, "MEAN_MOTION_DOT": 0.00012051, "MEAN_MOTION_DDOT": 0}, "tle": {"line1": "1 65077U 25166A   25341.89741187  .00012051  00000+0  22339-3 0  9995", "line2": "2 65077  51.6302 166.4547 0003425 217.7386 142.3363 15.49404055  2141"}}, "geometry": {"type": "Point", "coordinates": [-59.99524123684873, 41.62061162450673]}}, {"type": "Feature", "properties": {"norad_id": 65304, "name": "DRAGON CRS-33", "group": "stations", "lat": 41.620611120352045, "lon": -59.995240231304265, "alt_km": 413.07267748928734, "timestamp": "2025-12-08T05:48:07.852279+00:00", "meta": {"OBJECT_NAME": "DRAGON CRS-33", "OBJECT_ID": "2025-186A", "EPOCH": "2025-12-07T21:32:16.385568", "MEAN_MOTION": 15.49404055, "ECCENTRICITY": 0.0003425, "INCLINATION": 51.6302, "RA_OF_ASC_NODE": 166.4547, "ARG_OF_PERICENTER": 217.7386, "MEAN_ANOMALY": 142.3363, "EPHEMERIS_TYPE": 0, "CLASSIFICATION_TYPE": "U", "NORAD_CAT_ID": 65304, "ELEMENT_SET_NO": 999, "REV_AT_EPOCH": 11, "BSTAR": 0.00022339025, "MEAN_MOTION_DOT": 0.00012051, "MEAN_MOTION_DDOT": 0}, "tle": {"line1": "1 65304U 25186A   25341.89741187  .00012051  00000+0  22339-3 0  9990", "line2": "2 65304  51.6302 166.4547 0003425 217.7386 142.3363 15.49404055   119"}}, "geometry": {"type": "Point", "coordinates": [-59.995240231304265, 41.620611120352045]}}, {"type": "Feature", "properties": {"norad_id": 65586, "name": "PROGRESS-MS 32", "group": "stations", "lat": 41.62061076024126, "lon": -59.99523951305767, "alt_km": 413.0726775185831, "timestamp": "2025-12-08T05:48:07.852289+00:00", "meta": {"OBJECT_NAME": "PROGRESS-MS 32", "OBJECT_ID": "2025-204A", "EPOCH": "2025-12-07T21:32:16.385568", "MEAN_MOTION": 15.49404055, "ECCENTRICITY": 0.0003425, "INCLINATION": 51.6302, "RA_OF_ASC_NODE": 166.4547, "ARG_OF_PERICENTER": 217.7386, "MEAN_ANOMALY": 142.3363, "EPHEMERIS_TYPE": 0, "CLASSIFICATION_TYPE": "U", "NORAD_CAT_ID": 65586, "ELEMENT_SET_NO": 999, "REV_AT_EPOCH": 27, "BSTAR": 0.00022339025, "MEAN_MOTION_DOT": 0.00012051, "MEAN_MOTION_DDOT": 0}, "tle": {"line1": "1 65586U 25204A   25341.89741187  .00012051  00000+0  22339-3 0  9993", "line2": "2 65586  51.6302 166.4547 0003425 217.7386 142.3363 15.49404055   278"}}, "geometry": {"type": "Point", "coordinates": [-59.99523951305767, 41.62061076024126]}}, {"type": "Feature", "properties": {"norad_id": 65616, "name": "CYGNUS NG-23", "group": "stations", "lat": 41.62061043614195, "lon": -59.99523886663652, "alt_km": 413.0726775449457, "timestamp": "2025-12-08T05:48:07.852298+00:00", "meta": {"OBJECT_NAME": "CYGNUS NG-23", "OBJECT_ID": "2025-208A", "EPOCH": "2025-12-07T21:32:16.385568", "MEAN_MOTION": 15.49404055, "ECCENTRICITY": 0.0003425, "INCLINATION": 51.6302, "RA_OF_ASC_NODE": 166.4547, "ARG_OF_PERICENTER": 217.7386, "MEAN_ANOMALY": 142.3363, "EPHEMERIS_TYPE": 0, "CLASSIFICATION_TYPE": "U", "NORAD_CAT_ID": 65616, "ELEMENT_SET_NO": 999, "REV_AT_EPOCH": 22, "BSTAR": 0.00022339025, "MEAN_MOTION_DOT": 0.00012051, "MEAN_MOTION_DDOT": 0}, "tle": {"line1": "1 65616U 25208A   25341.89741187  .00012051  00000+0  22339-3 0  9991", "line2": "2 65616  51.6302 166.4547 0003425 217.7386 142.3363 15.49404055   227"}}, "geometry": {"type": "Point", "coordinates": [-59.99523886663652, 41.62061043614195]}}, {"type": "Feature", "properties": {"norad_id": 65729, "name": "DRAGONFLY", "group": "stations", "lat": 46.56086469125613, "lon": -78.04659079948499, "alt_km": 355.3784249972232, "timestamp": "2025-12-08T05:48:07.852309+00:00", "meta": {"OBJECT_NAME": "DRAGONFLY", "OBJECT_ID": "1998-067XH", "EPOCH": "2025-12-07T18:37:59.082528", "MEAN_MOTION": 15.69912986, "ECCENTRICITY": 0.00064534, "INCLINATION": 51.6247, "RA_OF_ASC_NODE": 161.1411, "ARG_OF_PERICENTER": 246.5239, "MEAN_ANOMALY": 113.508, "EPHEMERIS_TYPE": 0, "CLASSIFICATION_TYPE": "U", "NORAD_CAT_ID": 65729, "ELEMENT_SET_NO": 999, "REV_AT_EPOCH": 1238, "BSTAR": 0.0015255266, "MEAN_MOTION_DOT": 0.0019059, "MEAN_MOTION_DDOT": 0}, "tle": {"line1": "1 65729U 98067XH  25341.77637827  .00190590  00000+0  15255-2 0  9994", "line2": "2 65729  51.6247 161.1411 0006453 246.5239 113.5080 15.69912986 12388"}}, "geometry": {"type": "Point", "coordinates": [-78.04659079948499, 46.56086469125613]}}, {"type": "Feature", "properties": {"norad_id": 65731, "name": "1998-067XK", "group": "stations", "lat": -36.955752182578934, "lon": 16.625263588048263, "alt_km": 374.70414134899966, "timestamp": "2025-12-08T05:48:07.852318+00:00", "meta": {"OBJECT_NAME": "1998-067XK", "OBJECT_ID": "1998-067XK", "EPOCH": "2025-12-07T18:05:33.299232", "MEAN_MOTION": 15.64530779, "ECCENTRICITY": 0.00055056, "INCLINATION": 51.6281, "RA_OF_ASC_NODE": 162.5042, "ARG_OF_PERICENTER": 215.4402, "MEAN_ANOMALY": 144.6228, "EPHEMERIS_TYPE": 0, "CLASSIFICATION_TYPE": "U", "NORAD_CAT_ID": 65731, "ELEMENT_SET_NO": 999, "REV_AT_EPOCH": 1236, "BSTAR": 0.0011823689, "MEAN_MOTION_DOT": 0.00117476, "MEAN_MOTION_DDOT": 0}, "tle": {"line1": "1 65731U 98067XK  25341.75385763  .00117476  00000+0  11824-2 0  9994", "line2": "2 65731  51.6281 162.5042 0005505 215.4402 144.6228 15.64530779 12366"}}, "geometry": {"type": "Point", "coordinates": [16.625263588048263, -36.955752182578934]}}, {"type": "Feature", "properties": {"norad_id": 65732, "name": "RSP-03", "group": "stations", "lat": 16.63685566554618, "lon": -34.27425471933293, "alt_km": 363.3067454884849, "timestamp": "2025-12-08T05:48:07.852328+00:00", "meta": {"OBJECT_NAME": "RSP-03", "OBJECT_ID": "1998-067XL", "EPOCH": "2025-12-07T18:24:55.272096", "MEAN_MOTION": 15.67058622, "ECCENTRICITY": 0.00062986, "INCLINATION": 51.6259, "RA_OF_ASC_NODE": 161.8362, "ARG_OF_PERICENTER": 219.1939, "MEAN_ANOMALY": 140.8602, "EPHEMERIS_TYPE": 0, "CLASSIFICATION_TYPE": "U", "NORAD_CAT_ID": 65732, "ELEMENT_SET_NO": 999, "REV_AT_EPOCH": 1238, "BSTAR": 0.0013851426, "MEAN_MOTION_DOT": 0.00153139, "MEAN_MOTION_DDOT": 0}, "tle": {"line1": "1 65732U 98067XL  25341.76730639  .00153139  00000+0  13851-2 0  9990", "line2": "2 65732  51.6259 161.8362 0006298 219.1939 140.8602 15.67058622 12386"}}, "geometry": {"type": "Point", "coordinates": [-34.27425471933293, 16.63685566554618]}}, {"type": "Feature", "properties": {"norad_id": 65733, "name": "GHS-01", "group": "stations", "lat": -13.40885417460109, "lon": 147.39994541647945, "alt_km": 354.36803531274836, "timestamp": "2025-12-08T05:48:07.852338+00:00", "meta": {"OBJECT_NAME": "GHS-01", "OBJECT_ID": "1998-067XM", "EPOCH": "2025-12-07T19:11:53.922624", "MEAN_MOTION": 15.72338376, "ECCENTRICITY": 0.00069283, "INCLINATION": 51.6274, "RA_OF_ASC_NODE": 160.5539, "ARG_OF_PERICENTER": 245.5916, "MEAN_ANOMALY": 114.436, "EPHEMERIS_TYPE": 0, "CLASSIFICATION_TYPE": "U", "NORAD_CAT_ID": 65733, "ELEMENT_SET_NO": 999, "REV_AT_EPOCH": 1240, "BSTAR": 0.0017129744, "MEAN_MOTION_DOT": 0.00238468, "MEAN_MOTION_DDOT": 0}, "tle": {"line1": "1 65733U 98067XM  25341.79992966  .00238468  00000+0  17130-2 0  9990", "line2": "2 65733  51.6274 160.5539 0006928 245.5916 114.4360 15.72338376 12408"}}, "geometry": {"type": "Point", "coordinates": [147.39994541647945, -13.40885417460109]}}, {"type": "Feature", "properties": {"norad_id": 65941, "name": "YOTSUBA-KULOVER", "group": "stations", "lat": 51.60734444494276, "lon": -107.0666666680474, "alt_km": 384.8744401444055, "timestamp": "2025-12-08T05:48:07.852348+00:00", "meta": {"OBJECT_NAME": "YOTSUBA-KULOVER", "OBJECT_ID": "1998-067XN", "EPOCH": "2025-12-07T12:29:23.884512", "MEAN_MOTION": 15.58552395, "ECCENTRICITY": 0.00017957, "INCLINATION": 51.628, "RA_OF_ASC_NODE": 166.1928, "ARG_OF_PERICENTER": 200.639, "MEAN_ANOMALY": 159.453, "EPHEMERIS_TYPE": 0, "CLASSIFICATION_TYPE": "U", "NORAD_CAT_ID": 65941, "ELEMENT_SET_NO": 999, "REV_AT_EPOCH": 904, "BSTAR": 0.0010602119, "MEAN_MOTION_DOT": 0.00083069, "MEAN_MOTION_DDOT": 0}, "tle": {"line1": "1 65941U 98067XN  25341.52041533  .00083069  00000+0  10602-2 0  9999", "line2": "2 65941  51.6280 166.1928 0001795 200.6390 159.4530 15.58552395  9042"}}, "geometry": {"type": "Point", "coordinates": [-107.0666666680474, 51.60734444494276]}}, {"type": "Feature", "properties": {"norad_id": 65942, "name": "BOTAN", "group": "stations", "lat": 5.315510640384879, "lon": 166.22158889647338, "alt_km": 385.3194719411167, "timestamp": "2025-12-08T05:48:07.852358+00:00", "meta": {"OBJECT_NAME": "BOTAN", "OBJECT_ID": "1998-067XP", "EPOCH": "2025-12-07T19:01:20.591616", "MEAN_MOTION": 15.61568201, "ECCENTRICITY": 0.00038466, "INCLINATION": 51.6278, "RA_OF_ASC_NODE": 164.2597, "ARG_OF_PERICENTER": 199.4813, "MEAN_ANOMALY": 160.6034, "EPHEMERIS_TYPE": 0, "CLASSIFICATION_TYPE": "U", "NORAD_CAT_ID": 65942, "ELEMENT_SET_NO": 999, "REV_AT_EPOCH": 909, "BSTAR": 0.0014856756, "MEAN_MOTION_DOT": 0.00131716, "MEAN_MOTION_DDOT": 0}, "tle": {"line1": "1 65942U 98067XP  25341.79259944  .00131716  00000+0  14857-2 0  9995", "line2": "2 65942  51.6278 164.2597 0003846 199.4813 160.6034 15.61568201  9090"}}, "geometry": {"type": "Point", "coordinates": [166.22158889647338, 5.315510640384879]}}]}